STARLINK-35509          
1 66199U 25243Y   26068.80712287  .00027681  00000+0  94307-3 0  9993
2 66199  53.1599 244.5686 0000963  64.9004 295.2097 15.30205868 20678
KUIPER-00222            
1 67782U 26030U   26068.67636257  .00055223  00000+0  17317-2 0  9992
2 67782  51.8817 219.7147 0012800  40.1845 320.0084 15.32445377  5087
